{
  "norad_id": 54643,
  "name": "ONEWEB-0528",
  "history": [
    {
      "epoch": "2026-03-28T20:43:20.938656Z",
      "apogee_km": 1179.1064541087244,
      "perigee_km": 1176.4018984210925,
      "latitude_deg": -4.789604070614808e-06,
      "longitude_deg": 122.89327738003318,
      "height_km": 1180.7856652042283,
      "semi_major_axis_km": 7555.891176264909,
      "eccentricity": 0.00017897,
      "inclination_deg": 87.9172,
      "raan_deg": 260.0083,
      "arg_perigee_deg": 95.5058,
      "mean_anomaly_deg": 264.628,
      "mean_motion_rev_day": 13.21825788
    },
    {
      "epoch": "2026-03-29T03:59:21.559200Z",
      "apogee_km": 1179.104057553408,
      "perigee_km": 1176.400560358663,
      "latitude_deg": -6.47124032107725e-07,
      "longitude_deg": 13.531753486332239,
      "height_km": 1180.781048774472,
      "semi_major_axis_km": 7555.889308956035,
      "eccentricity": 0.0001789,
      "inclination_deg": 87.9172,
      "raan_deg": 259.9478,
      "arg_perigee_deg": 95.3909,
      "mean_anomaly_deg": 264.7429,
      "mean_motion_rev_day": 13.21826278
    },
    {
      "epoch": "2026-03-29T23:58:23.433312Z",
      "apogee_km": 1179.1054534769928,
      "perigee_km": 1176.4004448751875,
      "latitude_deg": -1.9880344687729086e-05,
      "longitude_deg": 72.78683669554783,
      "height_km": 1180.7761259292165,
      "semi_major_axis_km": 7555.88994917609,
      "eccentricity": 0.000179,
      "inclination_deg": 87.9171,
      "raan_deg": 259.7814,
      "arg_perigee_deg": 95.1513,
      "mean_anomaly_deg": 264.9825,
      "mean_motion_rev_day": 13.2182611
    },
    {
      "epoch": "2026-03-30T05:25:23.942784Z",
      "apogee_km": 1179.1045010320104,
      "perigee_km": 1176.401305860154,
      "latitude_deg": -1.0344650315459136e-05,
      "longitude_deg": -9.234514856473195,
      "height_km": 1180.7728190204402,
      "semi_major_axis_km": 7555.889903446082,
      "eccentricity": 0.00017888,
      "inclination_deg": 87.9171,
      "raan_deg": 259.736,
      "arg_perigee_deg": 95.016,
      "mean_anomaly_deg": 265.1178,
      "mean_motion_rev_day": 13.21826122
    },
    {
      "epoch": "2026-03-30T10:52:24.409056Z",
      "apogee_km": 1179.10010787399,
      "perigee_km": 1176.4032600849032,
      "latitude_deg": -6.414549652686363e-05,
      "longitude_deg": -91.25568820677856,
      "height_km": 1180.770216976071,
      "semi_major_axis_km": 7555.888683979446,
      "eccentricity": 0.00017846,
      "inclination_deg": 87.9171,
      "raan_deg": 259.6906,
      "arg_perigee_deg": 94.9682,
      "mean_anomaly_deg": 265.1655,
      "mean_motion_rev_day": 13.21826442
    }
  ]
}